CCSDS_OMM_VERS = 2.0
CREATION_DATE  = 
ORIGINATOR     = 

OBJECT_NAME    = UNKNOWN
OBJECT_ID      = 
CENTER_NAME    = EARTH
REF_FRAME      = TEME
TIME_SYSTEM    = UTC
MEAN_ELEMENT_THEORY = SGP/SGP4

EPOCH          = 2025-12-28T22:16:16.493952
MEAN_MOTION    = 12.33569308
ECCENTRICITY   = .0753072
INCLINATION    = 67.5222
RA_OF_ASC_NODE = 171.4173
ARG_OF_PERICENTER = 95.9674
MEAN_ANOMALY   = 272.7596

EPHEMERIS_TYPE = 0
CLASSIFICATION_TYPE = U
NORAD_CAT_ID   = 82272
ELEMENT_SET_NO = 999
REV_AT_EPOCH   = 27393
BSTAR          = .1708E-2
MEAN_MOTION_DOT = .505E-5
MEAN_MOTION_DDOT = 0

CCSDS_OMM_VERS = 2.0
CREATION_DATE  = 
ORIGINATOR     = 

OBJECT_NAME    = UNKNOWN
OBJECT_ID      = 
CENTER_NAME    = EARTH
REF_FRAME      = TEME
TIME_SYSTEM    = UTC
MEAN_ELEMENT_THEORY = SGP/SGP4

EPOCH          = 2025-12-12T17:24:53.740800
MEAN_MOTION    = 14.31337782
ECCENTRICITY   = .0127087
INCLINATION    = 66.6173
RA_OF_ASC_NODE = 148.2102
ARG_OF_PERICENTER = 223.3779
MEAN_ANOMALY   = 135.7264

EPHEMERIS_TYPE = 0
CLASSIFICATION_TYPE = U
NORAD_CAT_ID   = 82295
ELEMENT_SET_NO = 999
REV_AT_EPOCH   = 57972
BSTAR          = .98631E-3
MEAN_MOTION_DOT = .277E-4
MEAN_MOTION_DDOT = 0

CCSDS_OMM_VERS = 2.0
CREATION_DATE  = 
ORIGINATOR     = 

OBJECT_NAME    = UNKNOWN
OBJECT_ID      = 
CENTER_NAME    = EARTH
REF_FRAME      = TEME
TIME_SYSTEM    = UTC
MEAN_ELEMENT_THEORY = SGP/SGP4

EPOCH          = 2026-01-01T10:00:22.637952
MEAN_MOTION    = 13.87918965
ECCENTRICITY   = .0050003
INCLINATION    = 81.9349
RA_OF_ASC_NODE = 346.2081
ARG_OF_PERICENTER = 306.0291
MEAN_ANOMALY   = 207.5799

EPHEMERIS_TYPE = 0
CLASSIFICATION_TYPE = U
NORAD_CAT_ID   = 82303
ELEMENT_SET_NO = 999
REV_AT_EPOCH   = 51715
BSTAR          = .39129E-1
MEAN_MOTION_DOT = .47249E-3
MEAN_MOTION_DDOT = 0

CCSDS_OMM_VERS = 2.0
CREATION_DATE  = 
ORIGINATOR     = 

OBJECT_NAME    = UNKNOWN
OBJECT_ID      = 
CENTER_NAME    = EARTH
REF_FRAME      = TEME
TIME_SYSTEM    = UTC
MEAN_ELEMENT_THEORY = SGP/SGP4

EPOCH          = 2025-12-27T23:21:56.521440
MEAN_MOTION    = 13.54566003
ECCENTRICITY   = .0109896
INCLINATION    = 99.4332
RA_OF_ASC_NODE = 55.1141
ARG_OF_PERICENTER = 268.4061
MEAN_ANOMALY   = 90.4486

EPHEMERIS_TYPE = 0
CLASSIFICATION_TYPE = U
NORAD_CAT_ID   = 82311
ELEMENT_SET_NO = 999
REV_AT_EPOCH   = 55238
BSTAR          = .12222E-2
MEAN_MOTION_DOT = .826E-5
MEAN_MOTION_DDOT = 0

CCSDS_OMM_VERS = 2.0
CREATION_DATE  = 
ORIGINATOR     = 

OBJECT_NAME    = UNKNOWN
OBJECT_ID      = 
CENTER_NAME    = EARTH
REF_FRAME      = TEME
TIME_SYSTEM    = UTC
MEAN_ELEMENT_THEORY = SGP/SGP4

EPOCH          = 2025-12-28T19:12:46.273248
MEAN_MOTION    = 13.15628875
ECCENTRICITY   = .0455379
INCLINATION    = 66.9345
RA_OF_ASC_NODE = 159.5693
ARG_OF_PERICENTER = 155.5026
MEAN_ANOMALY   = 206.8417

EPHEMERIS_TYPE = 0
CLASSIFICATION_TYPE = U
NORAD_CAT_ID   = 82363
ELEMENT_SET_NO = 999
REV_AT_EPOCH   = 29237
BSTAR          = .13329E-2
MEAN_MOTION_DOT = .791E-5
MEAN_MOTION_DDOT = 0

CCSDS_OMM_VERS = 2.0
CREATION_DATE  = 
ORIGINATOR     = 

OBJECT_NAME    = UNKNOWN
OBJECT_ID      = 
CENTER_NAME    = EARTH
REF_FRAME      = TEME
TIME_SYSTEM    = UTC
MEAN_ELEMENT_THEORY = SGP/SGP4

EPOCH          = 2026-01-02T06:49:40.398240
MEAN_MOTION    = 13.98184358
ECCENTRICITY   = .0082798
INCLINATION    = 98.8980
RA_OF_ASC_NODE = 21.7346
ARG_OF_PERICENTER = 282.2041
MEAN_ANOMALY   = 76.9859

EPHEMERIS_TYPE = 0
CLASSIFICATION_TYPE = U
NORAD_CAT_ID   = 82369
ELEMENT_SET_NO = 999
REV_AT_EPOCH   = 56004
BSTAR          = .23245E-3
MEAN_MOTION_DOT = .297E-5
MEAN_MOTION_DDOT = 0

CCSDS_OMM_VERS = 2.0
CREATION_DATE  = 
ORIGINATOR     = 

OBJECT_NAME    = UNKNOWN
OBJECT_ID      = 
CENTER_NAME    = EARTH
REF_FRAME      = TEME
TIME_SYSTEM    = UTC
MEAN_ELEMENT_THEORY = SGP/SGP4

EPOCH          = 2026-01-02T02:23:56.674464
MEAN_MOTION    = 14.81850154
ECCENTRICITY   = .0010191
INCLINATION    = 98.3954
RA_OF_ASC_NODE = 232.8179
ARG_OF_PERICENTER = 65.4803
MEAN_ANOMALY   = 294.7470

EPHEMERIS_TYPE = 0
CLASSIFICATION_TYPE = U
NORAD_CAT_ID   = 82381
ELEMENT_SET_NO = 999
REV_AT_EPOCH   = 51382
BSTAR          = .55859E-2
MEAN_MOTION_DOT = .44414E-3
MEAN_MOTION_DDOT = 0

CCSDS_OMM_VERS = 2.0
CREATION_DATE  = 
ORIGINATOR     = 

OBJECT_NAME    = UNKNOWN
OBJECT_ID      = 
CENTER_NAME    = EARTH
REF_FRAME      = TEME
TIME_SYSTEM    = UTC
MEAN_ELEMENT_THEORY = SGP/SGP4

EPOCH          = 2026-01-02T09:37:47.437536
MEAN_MOTION    = 15.03825698
ECCENTRICITY   = .0009924
INCLINATION    = 86.6666
RA_OF_ASC_NODE = 146.6803
ARG_OF_PERICENTER = 85.1614
MEAN_ANOMALY   = 275.0754

EPHEMERIS_TYPE = 0
CLASSIFICATION_TYPE = U
NORAD_CAT_ID   = 82402
ELEMENT_SET_NO = 999
REV_AT_EPOCH   = 45757
BSTAR          = .97884E-3
MEAN_MOTION_DOT = .13509E-3
MEAN_MOTION_DDOT = 0

CCSDS_OMM_VERS = 2.0
CREATION_DATE  = 
ORIGINATOR     = 

OBJECT_NAME    = UNKNOWN
OBJECT_ID      = 
CENTER_NAME    = EARTH
REF_FRAME      = TEME
TIME_SYSTEM    = UTC
MEAN_ELEMENT_THEORY = SGP/SGP4

EPOCH          = 2025-12-05T07:44:44.191680
MEAN_MOTION    = 13.77237008
ECCENTRICITY   = .0056993
INCLINATION    = 66.6579
RA_OF_ASC_NODE = 356.8028
ARG_OF_PERICENTER = 41.8292
MEAN_ANOMALY   = 318.7113

EPHEMERIS_TYPE = 0
CLASSIFICATION_TYPE = U
NORAD_CAT_ID   = 82410
ELEMENT_SET_NO = 999
REV_AT_EPOCH   = 58571
BSTAR          = .28804E-3
MEAN_MOTION_DOT = .214E-5
MEAN_MOTION_DDOT = 0

CCSDS_OMM_VERS = 2.0
CREATION_DATE  = 
ORIGINATOR     = 

OBJECT_NAME    = UNKNOWN
OBJECT_ID      = 
CENTER_NAME    = EARTH
REF_FRAME      = TEME
TIME_SYSTEM    = UTC
MEAN_ELEMENT_THEORY = SGP/SGP4

EPOCH          = 2025-12-31T02:38:24.573696
MEAN_MOTION    = 14.58640510
ECCENTRICITY   = .0054207
INCLINATION    = 74.0071
RA_OF_ASC_NODE = 305.5467
ARG_OF_PERICENTER = 105.8778
MEAN_ANOMALY   = 254.8371

EPHEMERIS_TYPE = 0
CLASSIFICATION_TYPE = U
NORAD_CAT_ID   = 82432
ELEMENT_SET_NO = 999
REV_AT_EPOCH   = 48558
BSTAR          = .85314E-3
MEAN_MOTION_DOT = .4028E-4
MEAN_MOTION_DDOT = 0

CCSDS_OMM_VERS = 2.0
CREATION_DATE  = 
ORIGINATOR     = 

OBJECT_NAME    = UNKNOWN
OBJECT_ID      = 
CENTER_NAME    = EARTH
REF_FRAME      = TEME
TIME_SYSTEM    = UTC
MEAN_ELEMENT_THEORY = SGP/SGP4

EPOCH          = 2026-01-02T12:20:20.685984
MEAN_MOTION    = 15.04007336
ECCENTRICITY   = .0008052
INCLINATION    = 85.8748
RA_OF_ASC_NODE = 188.2312
ARG_OF_PERICENTER = 168.6318
MEAN_ANOMALY   = 191.5099

EPHEMERIS_TYPE = 0
CLASSIFICATION_TYPE = U
NORAD_CAT_ID   = 82448
ELEMENT_SET_NO = 999
REV_AT_EPOCH   = 44016
BSTAR          = .8967E-3
MEAN_MOTION_DOT = .12433E-3
MEAN_MOTION_DDOT = 0

CCSDS_OMM_VERS = 2.0
CREATION_DATE  = 
ORIGINATOR     = 

OBJECT_NAME    = UNKNOWN
OBJECT_ID      = 
CENTER_NAME    = EARTH
REF_FRAME      = TEME
TIME_SYSTEM    = UTC
MEAN_ELEMENT_THEORY = SGP/SGP4

EPOCH          = 2026-01-01T08:45:56.398176
MEAN_MOTION    = 12.39703397
ECCENTRICITY   = .0093327
INCLINATION    = 102.1803
RA_OF_ASC_NODE = 322.7214
ARG_OF_PERICENTER = 170.8454
MEAN_ANOMALY   = 189.4336

EPHEMERIS_TYPE = 0
CLASSIFICATION_TYPE = U
NORAD_CAT_ID   = 82453
ELEMENT_SET_NO = 999
REV_AT_EPOCH   = 54849
BSTAR          = .26566E-3
MEAN_MOTION_DOT = -.1E-6
MEAN_MOTION_DDOT = 0

CCSDS_OMM_VERS = 2.0
CREATION_DATE  = 
ORIGINATOR     = 

OBJECT_NAME    = UNKNOWN
OBJECT_ID      = 
CENTER_NAME    = EARTH
REF_FRAME      = TEME
TIME_SYSTEM    = UTC
MEAN_ELEMENT_THEORY = SGP/SGP4

EPOCH          = 2025-12-26T16:32:22.222176
MEAN_MOTION    = 14.22993569
ECCENTRICITY   = .0052751
INCLINATION    = 66.5121
RA_OF_ASC_NODE = 147.1517
ARG_OF_PERICENTER = 358.9124
MEAN_ANOMALY   = 1.1845

EPHEMERIS_TYPE = 0
CLASSIFICATION_TYPE = U
NORAD_CAT_ID   = 82458
ELEMENT_SET_NO = 999
REV_AT_EPOCH   = 61202
BSTAR          = .13658E-2
MEAN_MOTION_DOT = .304E-4
MEAN_MOTION_DDOT = 0

CCSDS_OMM_VERS = 2.0
CREATION_DATE  = 
ORIGINATOR     = 

OBJECT_NAME    = UNKNOWN
OBJECT_ID      = 
CENTER_NAME    = EARTH
REF_FRAME      = TEME
TIME_SYSTEM    = UTC
MEAN_ELEMENT_THEORY = SGP/SGP4

EPOCH          = 2026-01-01T12:28:23.350944
MEAN_MOTION    = 13.55807990
ECCENTRICITY   = .004539
INCLINATION    = 99.3557
RA_OF_ASC_NODE = 27.1281
ARG_OF_PERICENTER = 144.4451
MEAN_ANOMALY   = 215.9727

EPHEMERIS_TYPE = 0
CLASSIFICATION_TYPE = U
NORAD_CAT_ID   = 82484
ELEMENT_SET_NO = 999
REV_AT_EPOCH   = 59331
BSTAR          = .52569E-3
MEAN_MOTION_DOT = .328E-5
MEAN_MOTION_DDOT = 0

CCSDS_OMM_VERS = 2.0
CREATION_DATE  = 
ORIGINATOR     = 

OBJECT_NAME    = UNKNOWN
OBJECT_ID      = 
CENTER_NAME    = EARTH
REF_FRAME      = TEME
TIME_SYSTEM    = UTC
MEAN_ELEMENT_THEORY = SGP/SGP4

EPOCH          = 2026-01-02T06:16:37.961472
MEAN_MOTION    = 14.86849875
ECCENTRICITY   = .0001447
INCLINATION    = 74.0083
RA_OF_ASC_NODE = 340.9261
ARG_OF_PERICENTER = 137.7285
MEAN_ANOMALY   = 222.4006

EPHEMERIS_TYPE = 0
CLASSIFICATION_TYPE = U
NORAD_CAT_ID   = 82494
ELEMENT_SET_NO = 999
REV_AT_EPOCH   = 8801
BSTAR          = .41632E-2
MEAN_MOTION_DOT = .37326E-3
MEAN_MOTION_DDOT = 0

CCSDS_OMM_VERS = 2.0
CREATION_DATE  = 
ORIGINATOR     = 

OBJECT_NAME    = UNKNOWN
OBJECT_ID      = 
CENTER_NAME    = EARTH
REF_FRAME      = TEME
TIME_SYSTEM    = UTC
MEAN_ELEMENT_THEORY = SGP/SGP4

EPOCH          = 2025-12-31T05:41:30.001920
MEAN_MOTION    = 14.18634932
ECCENTRICITY   = .0113452
INCLINATION    = 70.9670
RA_OF_ASC_NODE = 324.7025
ARG_OF_PERICENTER = 87.2721
MEAN_ANOMALY   = 274.1383

EPHEMERIS_TYPE = 0
CLASSIFICATION_TYPE = U
NORAD_CAT_ID   = 82500
ELEMENT_SET_NO = 999
REV_AT_EPOCH   = 62157
BSTAR          = .29677E-2
MEAN_MOTION_DOT = .6518E-4
MEAN_MOTION_DDOT = 0

